STARLINK-32077          
1 60344U 24136R   26068.41154516  .00000122  00000+0  16244-4 0  9997
2 60344  53.1613  76.8348 0001422  76.8529 283.2631 15.30189785 89627
NUSAT-50 (NANCY ROMAN)  
1 60493U 24149AB  26068.80227738  .00012094  00000+0  42252-3 0  9994
2 60493  97.3817 150.7693 0002523 238.0469 122.0527 15.29713355 86930
