[{"OBJECT_NAME":"STARLINK-32077","OBJECT_ID":"2024-136R","EPOCH":"2026-03-09T09:52:37.501824","MEAN_MOTION":15.30189785,"ECCENTRICITY":0.00014224,"INCLINATION":53.1613,"RA_OF_ASC_NODE":76.8348,"ARG_OF_PERICENTER":76.8529,"MEAN_ANOMALY":283.2631,"EPHEMERIS_TYPE":0,"CLASSIFICATION_TYPE":"U","NORAD_CAT_ID":60344,"ELEMENT_SET_NO":999,"REV_AT_EPOCH":8962,"BSTAR":1.6243841e-5,"MEAN_MOTION_DOT":1.22e-6,"MEAN_MOTION_DDOT":0},{"OBJECT_NAME":"NUSAT-50 (NANCY ROMAN)","OBJECT_ID":"2024-149AB","EPOCH":"2026-03-09T19:15:16.765632","MEAN_MOTION":15.29713355,"ECCENTRICITY":0.00025229,"INCLINATION":97.3817,"RA_OF_ASC_NODE":150.7693,"ARG_OF_PERICENTER":238.0469,"MEAN_ANOMALY":122.0527,"EPHEMERIS_TYPE":0,"CLASSIFICATION_TYPE":"U","NORAD_CAT_ID":60493,"ELEMENT_SET_NO":999,"REV_AT_EPOCH":8693,"BSTAR":0.0004225155,"MEAN_MOTION_DOT":0.00012094,"MEAN_MOTION_DDOT":0}]
